{"fetched_at":"2026-06-04T14:56:15Z","count":3577,"tles":[{"name":"ISIS 1","line1":"1 03669U 69009A   26152.34901344  .00000083  00000+0  62039-4 0  9996","line2":"2 03669  88.4416 146.1407 1705901 280.2415  61.1375 11.30431426357985","category":"Other"},{"name":"SL-8 R/B","line1":"1 02802U 67045B   26155.07626125  .00000300  00000+0  90603-4 0  9996","line2":"2 02802  74.0097 186.7460 0063988 174.4348 185.7536 14.45676347101507","category":"Other"},{"name":"OAO 2","line1":"1 03597U 68110A   26152.39481158  .00000191  00000+0  56565-4 0  9996","line2":"2 03597  34.9918 157.8581 0005277 154.0049 206.0907 14.47345232 31237","category":"Other"},{"name":"ATLAS CENTAUR 2","line1":"1 00694U 63047A   26154.92460062  .00002275  00000+0  26665-3 0  9999","line2":"2 00694  30.3524  73.5605 0546106 120.5321 245.0333 14.12483761143825","category":"Other"},{"name":"SERT 2","line1":"1 04327U 70009A   26154.34797837  .00000001  00000+0  58553-4 0  9998","line2":"2 04327  99.2839  92.8040 0004225 315.8621 156.1259 13.58738191791529","category":"Other"},{"name":"ASTEX 1","line1":"1 05560U 71089A   26155.03696304  .00000394  00000+0  10018-3 0  9999","line2":"2 05560  92.7002 179.6204 0016813 145.6563 214.5733 14.50840976874824","category":"Other"},{"name":"SL-8 R/B","line1":"1 05730U 71119B   26155.02162205  .00005311  00000+0  27315-3 0  9991","line2":"2 05730  73.8875  14.1398 0543880 322.7650  33.6912 14.39406359667900","category":"Other"},{"name":"THOR AGENA D R/B","line1":"1 00733U 64002A   26155.03997330  .00000209  00000+0  91626-4 0  9996","line2":"2 00733  99.1159 173.0626 0033011   9.1116 351.0659 14.34059930250677","category":"Other"},{"name":"OAO 3 (COPERNICUS)","line1":"1 06153U 72065A   26152.45812219  .00000291  00000+0  64020-4 0  9990","line2":"2 06153  35.0042 180.0292 0006122 129.0606  28.8220 14.60050941858449","category":"Other"},{"name":"ATLAS CENTAUR R/B","line1":"1 06155U 72065B   26153.34784668  .00001070  00000+0  14825-3 0  9990","line2":"2 06155  35.0000 169.5370 0033472   1.9225 358.1599 14.77888301853795","category":"Other"},{"name":"SL-8 R/B","line1":"1 08459U 75112B   26154.61619174  .00000203  00000+0  75251-4 0  9993","line2":"2 08459  74.0606 220.8394 0016754 289.3788  70.5555 14.38239890644229","category":"Other"},{"name":"SL-3 R/B","line1":"1 10114U 77057B   26155.15733395  .00012904  00000+0  25202-3 0  9997","line2":"2 10114  97.5837 331.0702 0006207 341.4961  18.6062 15.47596552681699","category":"Other"},{"name":"SL-14 R/B","line1":"1 11672U 80005B   26154.63078766  .00000565  00000+0  54480-4 0  9991","line2":"2 11672  82.5152 225.6986 0014433 233.2695 126.7199 14.91017292489298","category":"Other"},{"name":"SL-3 R/B","line1":"1 12904U 81103B   26155.17022036  .00005732  00000+0  24824-3 0  9998","line2":"2 12904  81.1579 111.9238 0012824   2.3579 357.7710 15.22167874986384","category":"Other"},{"name":"SL-3 R/B","line1":"1 14208U 83075B   26155.07672053  .00010832  00000+0  26987-3 0  9995","line2":"2 14208  97.6104 163.0479 0018788 280.7005  79.2125 15.40244441343441","category":"Other"},{"name":"SL-8 R/B","line1":"1 12139U 81003B   26154.60309405  .00015182  00000+0  37657-3 0  9990","line2":"2 12139  82.9378 210.3893 0250788 238.8469 118.7956 15.13814725327669","category":"Other"},{"name":"SL-3 R/B","line1":"1 13154U 82039B   26155.18362568  .00003679  00000+0  21985-3 0  9996","line2":"2 13154  81.1420 116.1137 0030284  38.1310 322.2050 15.10457861394698","category":"Other"},{"name":"SL-3 R/B","line1":"1 13819U 83010B   26154.30009512  .00017353  00000+0  32011-3 0  9990","line2":"2 13819  81.1029 257.0620 0016035 108.7183 251.5805 15.48835900371189","category":"Other"},{"name":"SL-3 R/B","line1":"1 13403U 82079B   26155.13084485  .00004988  00000+0  19352-3 0  9990","line2":"2 13403  81.1463  90.9285 0022742 230.9923 128.9286 15.25673955390875","category":"Other"}]}