OBJECT_NAME,OBJECT_ID,EPOCH,MEAN_MOTION,ECCENTRICITY,INCLINATION,RA_OF_ASC_NODE,ARG_OF_PERICENTER,MEAN_ANOMALY,EPHEMERIS_TYPE,CLASSIFICATION_TYPE,NORAD_CAT_ID,ELEMENT_SET_NO,REV_AT_EPOCH,BSTAR,MEAN_MOTION_DOT,MEAN_MOTION_DDOT
ATLAS CENTAUR 2,1963-047A,2026-06-03T22:11:25.493568,14.12483761,.0546106,30.3524,73.5605,120.5321,245.0333,0,U,694,999,14382,.26665E-3,.2275E-4,0
THOR AGENA D R/B,1964-002A,2026-06-04T00:57:33.693120,14.34059930,.0033011,99.1159,173.0626,9.1116,351.0659,0,U,733,999,25067,.91626E-4,.209E-5,0
SL-8 R/B,1967-045B,2026-06-04T01:49:48.972000,14.45676347,.0063988,74.0097,186.7460,174.4348,185.7536,0,U,2802,999,10150,.90603E-4,.3E-5,0
OAO 2,1968-110A,2026-06-01T09:28:31.720512,14.47345232,.00052776,34.9918,157.8581,154.0049,206.0907,0,U,3597,999,3123,.56565054E-4,.191E-5,0
ISIS 1,1969-009A,2026-06-01T08:22:34.761216,11.30431426,.17059018,88.4416,146.1407,280.2415,61.1375,0,U,3669,999,35798,.62039084E-4,.83E-6,0
SERT 2,1970-009A,2026-06-03T08:21:05.331168,13.58738191,.00042256,99.2839,92.8040,315.8621,156.1259,0,U,4327,999,79152,.58553271E-4,.1E-7,0
ASTEX 1,1971-089A,2026-06-04T00:53:13.606656,14.50840976,.0016813,92.7002,179.6204,145.6563,214.5733,0,U,5560,999,87482,.10018E-3,.394E-5,0
SL-8 R/B,1971-119B,2026-06-04T00:31:08.145120,14.39406359,.054388,73.8875,14.1398,322.7650,33.6912,0,U,5730,999,66790,.27315E-3,.5311E-4,0
OAO 3 (COPERNICUS),1972-065A,2026-06-01T10:59:41.757216,14.60050941,.00061227,35.0042,180.0292,129.0606,28.8220,0,U,6153,999,85844,.64019879E-4,.291E-5,0
ATLAS CENTAUR R/B,1972-065B,2026-06-02T08:20:53.953152,14.77888301,.00334726,35.0000,169.5370,1.9225,358.1599,0,U,6155,999,85379,.14824681E-3,.107E-4,0
SL-8 R/B,1975-112B,2026-06-03T14:47:18.966336,14.38239890,.00167541,74.0606,220.8394,289.3788,70.5555,0,U,8459,999,64422,.75251045E-4,.203E-5,0
SL-3 R/B,1977-057B,2026-06-04T03:46:33.653280,15.47596552,.0006207,97.5837,331.0702,341.4961,18.6062,0,U,10114,999,68169,.25202E-3,.12904E-3,0
SL-14 R/B,1980-005B,2026-06-03T15:08:20.053824,14.91017292,.0014433,82.5152,225.6986,233.2695,126.7199,0,U,11672,999,48929,.5448E-4,.565E-5,0
SL-8 R/B,1981-003B,2026-06-03T14:28:27.325920,15.13814725,.02507887,82.9378,210.3893,238.8469,118.7956,0,U,12139,999,32766,.37656748E-3,.15182E-3,0
SL-3 R/B,1981-103B,2026-06-04T04:05:07.039104,15.22167874,.0012824,81.1579,111.9238,2.3579,357.7710,0,U,12904,999,98638,.24824E-3,.5732E-4,0
SL-3 R/B,1982-039B,2026-06-04T04:24:25.258752,15.10457861,.0030284,81.1420,116.1137,38.1310,322.2050,0,U,13154,999,39469,.21985E-3,.3679E-4,0
SL-3 R/B,1982-079B,2026-06-04T03:08:24.995040,15.25673955,.0022742,81.1463,90.9285,230.9923,128.9286,0,U,13403,999,39087,.19352E-3,.4988E-4,0
SL-3 R/B,1983-010B,2026-06-03T07:12:08.218368,15.48835900,.0016035,81.1029,257.0620,108.7183,251.5805,0,U,13819,999,37118,.32011377E-3,.17353E-3,0
SL-3 R/B,1983-075B,2026-06-04T01:50:28.653792,15.40244441,.0018788,97.6104,163.0479,280.7005,79.2125,0,U,14208,999,34344,.26987E-3,.10832E-3,0
